{
  "type": "FeatureCollection",
  "features": [
    {
      "type": "Feature",
      "properties": {
        "norad_id": 34492,
        "name": "IRIDIUM 33 DEB",
        "group": "iridium-33-debris",
        "lat": 9.662296076765447,
        "lon": 154.3471763090942,
        "alt_km": 760.2882977499203,
        "timestamp": "2025-12-11T22:43:47.654709+00:00",
        "meta_object_name": "IRIDIUM 33 DEB",
        "meta_object_id": "1997-051GH",
        "meta_epoch": "2025-12-11T10:51:29.088000",
        "meta_mean_motion": 14.25685433,
        "meta_eccentricity": 0.01891489,
        "meta_inclination": 86.4728,
        "meta_ra_of_asc_node": 335.1486,
        "meta_arg_of_pericenter": 242.3501,
        "meta_mean_anomaly": 272.6341,
        "meta_ephemeris_type": 0,
        "meta_classification_type": "U",
        "meta_norad_cat_id": 34492,
        "meta_element_set_no": 999,
        "meta_rev_at_epoch": 85040,
        "meta_bstar": 0.0095833732,
        "meta_mean_motion_dot": 0.00027512,
        "meta_mean_motion_ddot": 0,
        "tle_line1": "1 34492U 97051GH  25345.45242000  .00027512  00000+0  95834-2 0  9997",
        "tle_line2": "2 34492  86.4728 335.1486 0189148 242.3501 272.6341 14.25685433850400"
      },
      "geometry": {
        "type": "Point",
        "coordinates": [
          154.3471763090942,
          9.662296076765447
        ]
      }
    },
    {
      "type": "Feature",
      "properties": {
        "norad_id": 34497,
        "name": "IRIDIUM 33 DEB",
        "group": "iridium-33-debris",
        "lat": 46.20730861027933,
        "lon": 56.63380212229637,
        "alt_km": 771.2259287401384,
        "timestamp": "2025-12-11T22:43:47.654719+00:00",
        "meta_object_name": "IRIDIUM 33 DEB",
        "meta_object_id": "1997-051GN",
        "meta_epoch": "2025-12-10T04:35:23.086752",
        "meta_mean_motion": 14.2744131,
        "meta_eccentricity": 0.00790645,
        "meta_inclination": 86.2779,
        "meta_ra_of_asc_node": 53.4903,
        "meta_arg_of_pericenter": 347.8917,
        "meta_mean_anomaly": 40.4515,
        "meta_ephemeris_type": 0,
        "meta_classification_type": "U",
        "meta_norad_cat_id": 34497,
        "meta_element_set_no": 999,
        "meta_rev_at_epoch": 86847,
        "meta_bstar": 0.00082191095,
        "meta_mean_motion_dot": 2.102e-05,
        "meta_mean_motion_ddot": 0,
        "tle_line1": "1 34497U 97051GN  25344.19123943  .00002102  00000+0  82191-3 0  9997",
        "tle_line2": "2 34497  86.2779  53.4903 0079064 347.8917  40.4515 14.27441310868476"
      },
      "geometry": {
        "type": "Point",
        "coordinates": [
          56.63380212229637,
          46.20730861027933
        ]
      }
    },
    {
      "type": "Feature",
      "properties": {
        "norad_id": 34508,
        "name": "IRIDIUM 33 DEB",
        "group": "iridium-33-debris",
        "lat": 7.526507881787182,
        "lon": -77.50166732065718,
        "alt_km": 718.7014800750585,
        "timestamp": "2025-12-11T22:43:47.654730+00:00",
        "meta_object_name": "IRIDIUM 33 DEB",
        "meta_object_id": "1997-051GZ",
        "meta_epoch": "2025-12-11T08:34:28.799328",
        "meta_mean_motion": 14.38409637,
        "meta_eccentricity": 0.00659674,
        "meta_inclination": 86.3698,
        "meta_ra_of_asc_node": 103.229,
        "meta_arg_of_pericenter": 177.4646,
        "meta_mean_anomaly": 182.6901,
        "meta_ephemeris_type": 0,
        "meta_classification_type": "U",
        "meta_norad_cat_id": 34508,
        "meta_element_set_no": 999,
        "meta_rev_at_epoch": 87289,
        "meta_bstar": 0.0027381025,
        "meta_mean_motion_dot": 8.585e-05,
        "meta_mean_motion_ddot": 0,
        "tle_line1": "1 34508U 97051GZ  25345.35727777  .00008585  00000+0  27381-2 0  9994",
        "tle_line2": "2 34508  86.3698 103.2290 0065967 177.4646 182.6901 14.38409637872893"
      },
      "geometry": {
        "type": "Point",
        "coordinates": [
          -77.50166732065718,
          7.526507881787182
        ]
      }
    },
    {
      "type": "Feature",
      "properties": {
        "norad_id": 34521,
        "name": "IRIDIUM 33 DEB",
        "group": "iridium-33-debris",
        "lat": -80.23002931198226,
        "lon": 9.326859080133238,
        "alt_km": 689.2967114643379,
        "timestamp": "2025-12-11T22:43:47.654747+00:00",
        "meta_object_name": "IRIDIUM 33 DEB",
        "meta_object_id": "1997-051HN",
        "meta_epoch": "2025-12-11T13:15:08.871264",
        "meta_mean_motion": 14.63350474,
        "meta_eccentricity": 0.00014194,
        "meta_inclination": 86.3802,
        "meta_ra_of_asc_node": 31.0706,
        "meta_arg_of_pericenter": 220.6966,
        "meta_mean_anomaly": 139.4141,
        "meta_ephemeris_type": 0,
        "meta_classification_type": "U",
        "meta_norad_cat_id": 34521,
        "meta_element_set_no": 999,
        "meta_rev_at_epoch": 88455,
        "meta_bstar": 0.0013668765,
        "meta_mean_motion_dot": 7.081e-05,
        "meta_mean_motion_ddot": 0,
        "tle_line1": "1 34521U 97051HN  25345.55218601  .00007081  00000+0  13669-2 0  9996",
        "tle_line2": "2 34521  86.3802  31.0706 0001419 220.6966 139.4141 14.63350474884557"
      },
      "geometry": {
        "type": "Point",
        "coordinates": [
          9.326859080133238,
          -80.23002931198226
        ]
      }
    },
    {
      "type": "Feature",
      "properties": {
        "norad_id": 34525,
        "name": "IRIDIUM 33 DEB",
        "group": "iridium-33-debris",
        "lat": 23.365277326132052,
        "lon": -134.38832048004042,
        "alt_km": 746.1154085034495,
        "timestamp": "2025-12-11T22:43:47.654757+00:00",
        "meta_object_name": "IRIDIUM 33 DEB",
        "meta_object_id": "1997-051HS",
        "meta_epoch": "2025-12-11T16:03:46.586016",
        "meta_mean_motion": 14.42901861,
        "meta_eccentricity": 0.00066977,
        "meta_inclination": 86.3729,
        "meta_ra_of_asc_node": 47.3005,
        "meta_arg_of_pericenter": 97.8049,
        "meta_mean_anomaly": 56.5607,
        "meta_ephemeris_type": 0,
        "meta_classification_type": "U",
        "meta_norad_cat_id": 34525,
        "meta_element_set_no": 999,
        "meta_rev_at_epoch": 88072,
        "meta_bstar": 0.00057422935,
        "meta_mean_motion_dot": 1.938e-05,
        "meta_mean_motion_ddot": 0,
        "tle_line1": "1 34525U 97051HS  25345.66928919  .00001938  00000+0  57423-3 0  9994",
        "tle_line2": "2 34525  86.3729  47.3005 0006697  97.8049  56.5607 14.42901861880720"
      },
      "geometry": {
        "type": "Point",
        "coordinates": [
          -134.38832048004042,
          23.365277326132052
        ]
      }
    },
    {
      "type": "Feature",
      "properties": {
        "norad_id": 34529,
        "name": "IRIDIUM 33 DEB",
        "group": "iridium-33-debris",
        "lat": 57.45160786515176,
        "lon": 41.46705614286704,
        "alt_km": 752.7728232895806,
        "timestamp": "2025-12-11T22:43:47.654770+00:00",
        "meta_object_name": "IRIDIUM 33 DEB",
        "meta_object_id": "1997-051HW",
        "meta_epoch": "2025-12-11T14:07:40.885824",
        "meta_mean_motion": 14.40614441,
        "meta_eccentricity": 0.00046649,
        "meta_inclination": 86.3642,
        "meta_ra_of_asc_node": 35.9025,
        "meta_arg_of_pericenter": 180.4404,
        "meta_mean_anomaly": 179.6792,
        "meta_ephemeris_type": 0,
        "meta_classification_type": "U",
        "meta_norad_cat_id": 34529,
        "meta_element_set_no": 999,
        "meta_rev_at_epoch": 88125,
        "meta_bstar": 0.00017424835,
        "meta_mean_motion_dot": 5.75e-06,
        "meta_mean_motion_ddot": 0,
        "tle_line1": "1 34529U 97051HW  25345.58866766  .00000575  00000+0  17425-3 0  9994",
        "tle_line2": "2 34529  86.3642  35.9025 0004664 180.4404 179.6792 14.40614441881253"
      },
      "geometry": {
        "type": "Point",
        "coordinates": [
          41.46705614286704,
          57.45160786515176
        ]
      }
    },
    {
      "type": "Feature",
      "properties": {
        "norad_id": 34538,
        "name": "IRIDIUM 33 DEB",
        "group": "iridium-33-debris",
        "lat": -68.40163902707518,
        "lon": -164.6315072694408,
        "alt_km": 753.8400212125271,
        "timestamp": "2025-12-11T22:43:47.654780+00:00",
        "meta_object_name": "IRIDIUM 33 DEB",
        "meta_object_id": "1997-051JF",
        "meta_epoch": "2025-12-11T12:17:49.059168",
        "meta_mean_motion": 14.42637449,
        "meta_eccentricity": 0.00329249,
        "meta_inclination": 86.2774,
        "meta_ra_of_asc_node": 6.0934,
        "meta_arg_of_pericenter": 332.21,
        "meta_mean_anomaly": 180.6153,
        "meta_ephemeris_type": 0,
        "meta_classification_type": "U",
        "meta_norad_cat_id": 34538,
        "meta_element_set_no": 999,
        "meta_rev_at_epoch": 87738,
        "meta_bstar": 0.0015467501,
        "meta_mean_motion_dot": 5.192e-05,
        "meta_mean_motion_ddot": 0,
        "tle_line1": "1 34538U 97051JF  25345.51237337  .00005192  00000+0  15468-2 0  9997",
        "tle_line2": "2 34538  86.2774   6.0934 0032924 332.2100 180.6153 14.42637449877383"
      },
      "geometry": {
        "type": "Point",
        "coordinates": [
          -164.6315072694408,
          -68.40163902707518
        ]
      }
    }
  ]
}